     2.11           N: GPS NAV DATA                         RINEX VERSION / TYPE
GNSS-SDR            joel                 5-MAY-25 10:32     PGM / RUN BY / DATE 
GPS NAVIGATION MESSAGE FILE GENERATED BY GNSS-SDR           COMMENT             
GNSS-SDR VERSION 0.0.16                                     COMMENT             
See https://gnss-sdr.org                                    COMMENT             
     .1211D-07  -.7451D-08  -.5960D-07   .1192D-06          ION ALPHA           
     .1167D+06  -.2458D+06  -.6554D+05   .1114D+07          ION BETA            
     .279396772385D-08  .799360577730D-14   147456      143 DELTA-UTC: A0,A1,T,W
    18                                                      LEAP SECONDS        
                                                            END OF HEADER       
 1 02  5 18  0  0  0.0  .469126738608D-03 -.989075488178D-11  .000000000000D+00 
     .390000000000D+02 -.141125000000D+03  .398838041777D-08 -.624294236772D+00 
    -.736303627491D-05  .112181392033D-01  .469386577606D-05  .515367499352D+04 
     .518400000000D+06 -.298023223877D-07 -.103661123863D+01  .193715095520D-06 
     .986418769490D+00  .299750000000D+03  .884087601569D+00 -.813355308085D-08 
    -.377872882779D-09  .100000000000D+01  .116600000000D+04  .100000000000D+01 
     .000000000000D+00  .000000000000D+00  .512227416039D-08  .390000000000D+02 
     .518442000000D+06  .000000000000D+00                                       
 7 02  5 18  0  0  0.0  .297149643302D-03  .397903932026D-11  .000000000000D+00 
     .110000000000D+02 -.875000000000D+00  .483948729836D-08 -.128130415089D+01 
     .540167093277D-07  .153936392162D-01  .844337046146D-05  .515370270538D+04 
     .518400000000D+06  .391155481339D-06  .209930953089D+01  .160187482834D-06 
     .950722051310D+00  .206500000000D+03 -.229708170398D+01 -.795140263641D-08 
    -.555380276675D-09  .100000000000D+01  .116600000000D+04  .100000000000D+01 
     .000000000000D+00  .000000000000D+00 -.111758708954D-07  .110000000000D+02 
     .518442000000D+06  .000000000000D+00                                       
 8 02  5 18  0  0  0.0 -.503165647388D-04 -.136424205266D-11  .000000000000D+00 
     .103000000000D+03  .810000000000D+02  .467698052930D-08  .168739859998D+01 
     .443309545517D-05  .704693270382D-02  .530853867531D-06  .515370576859D+04 
     .518400000000D+06  .102445483208D-06 -.211607141071D+01  .160187482834D-06 
     .965195864351D+00  .369906250000D+03  .718345046983D-01 -.852678374620D-08 
     .557166065346D-10  .100000000000D+01  .116600000000D+04  .100000000000D+01 
     .000000000000D+00  .000000000000D+00  .512227416039D-08  .103000000000D+03 
     .518442000000D+06  .000000000000D+00                                       
10 02  5 18  0  0  0.0 -.282293185592D-03 -.920863385545D-11  .000000000000D+00 
     .600000000000D+02 -.835000000000D+02  .381301597028D-08 -.261960097884D+01 
    -.436976552010D-05  .740606582258D-02  .119917094707D-04  .515368219948D+04 
     .518400000000D+06  .465661287308D-07 -.413083007708D-02 -.540167093277D-07 
     .972251247607D+00  .155656250000D+03 -.254667548104D+01 -.738780773185D-08 
     .538951020902D-09  .100000000000D+01  .116600000000D+04  .100000000000D+01 
     .000000000000D+00  .000000000000D+00  .232830643654D-08  .600000000000D+02 
     .518442000000D+06  .000000000000D+00                                       
16 02  5 18  0  0  0.0 -.448985025287D-03 -.557065504836D-11  .000000000000D+00 
     .103000000000D+03  .142656250000D+03  .404552565524D-08  .247462917799D+01 
     .732205808163D-05  .125737868948D-01  .105407088995D-04  .515358931351D+04 
     .518400000000D+06 -.143423676491D-06 -.305324813529D+01 -.225380063057D-06 
     .971321949378D+00  .180843750000D+03  .691299125166D+00 -.758531595886D-08 
     .232152527227D-10  .100000000000D+01  .116600000000D+04  .100000000000D+01 
     .000000000000D+00  .000000000000D+00 -.102445483208D-07  .103000000000D+03 
     .518442000000D+06  .000000000000D+00                                       
21 02  5 18  0  0  0.0  .155099667609D-03  .909494701773D-12  .000000000000D+00 
     .920000000000D+02 -.132000000000D+03  .442339853802D-08  .173937844780D+01 
    -.710971653461D-05  .244338521734D-01  .205636024475D-05  .515360956573D+04 
     .518400000000D+06  .419095158577D-06 -.112630521255D+01  .186264514923D-07 
     .958981117710D+00  .330343750000D+03 -.103517151073D+01 -.804854954011D-08 
    -.506092509356D-09  .100000000000D+01  .116600000000D+04  .100000000000D+01 
     .000000000000D+00  .000000000000D+00 -.102445483208D-07  .920000000000D+02 
     .518442000000D+06  .000000000000D+00                                       
22 02  5 18  0  0  0.0 -.428141094744D-03  .886757334229D-11  .000000000000D+00 
     .210000000000D+02 -.823750000000D+02  .471805366873D-08  .478069424642D+00 
    -.445917248726D-05  .685056508519D-02  .117477029562D-04  .515365055656D+04 
     .518400000000D+06  .353902578354D-07 -.108411339265D+00 -.141561031342D-06 
     .938289708264D+00  .144562500000D+03 -.864747060918D+00 -.809783730743D-08 
     .318941856637D-09  .100000000000D+01  .116600000000D+04  .100000000000D+01 
     .000000000000D+00  .630000000000D+02 -.176951289177D-07  .210000000000D+02 
     .518442000000D+06  .000000000000D+00                                       
23 02  5 18  0  0  0.0  .158632174134D-04 -.397903932026D-11  .000000000000D+00 
     .136000000000D+03 -.836562500000D+02  .394337854326D-08 -.125988666302D+01 
    -.429153442383D-05  .195271300618D-02  .117812305689D-04  .515369845200D+04 
     .518400000000D+06 -.428408384323D-07 -.287402779251D-01 -.223517417908D-07 
     .967294461297D+00  .158218750000D+03  .289501130866D+01 -.752424198631D-08 
     .479662837025D-09  .100000000000D+01  .116600000000D+04  .100000000000D+01 
     .000000000000D+00  .000000000000D+00 -.838190317154D-08  .136000000000D+03 
     .518442000000D+06  .000000000000D+00                                       
27 02  5 18  0  0  0.0  .403262674809D-04  .252384779742D-10  .000000000000D+00 
     .270000000000D+02  .818125000000D+02  .454411785218D-08  .160296808681D+01 
     .426732003689D-05  .993561407086D-02  .482425093651D-06  .515365127945D+04 
     .518400000000D+06 -.160187482834D-06 -.209701157478D+01  .193715095520D-06 
     .973858489869D+00  .377968750000D+03  .628104458112D+00 -.847249577060D-08 
     .108933108930D-09  .100000000000D+01  .116600000000D+04  .100000000000D+01 
     .000000000000D+00  .000000000000D+00  .139698386192D-08  .270000000000D+02 
     .518538000000D+06  .000000000000D+00                                       
